{"spkid": "50068640", "covariance": {"elements": [{"name": "e", "sigma": 5.4448608221414e-08, "units": null, "title": "eccentricity", "value": ".4503002393822644", "label": "e"}, {"units": "au", "title": "perihelion distance", "value": ".9937148194505528", "name": "q", "sigma": 9.86476138109771e-08, "label": "q"}, {"title": "time of perihelion passage", "value": "2456315.226669601578", "units": "TDB", "sigma": 3.96756672980585e-05, "name": "tp", "label": "tp"}, {"name": "om", "sigma": 1.13894422010086e-05, "units": "deg", "value": "40.20001122140653", "title": "longitude of the ascending node", "label": "node"}, {"label": "peri", "name": "w", "sigma": 4.8532873058491e-05, "title": "argument of perihelion", "value": "30.26928823596018", "units": "deg"}, {"name": "i", "sigma": 2.4251453128617e-05, "title": "inclination", "value": "12.61167446842181", "units": "deg", "label": "i"}], "data": [["2.96465093724903E-15", "-5.371120525984325E-15", "1.686358840348239E-12", "8.704934046228623E-14", "2.084417814183738E-12", "-1.491602278965372E-13"], ["-5.371120525984325E-15", "9.731351710599681E-15", "-3.047803782309296E-12", "-1.598884440851779E-13", "-3.768032265396776E-12", "2.792384231133396E-13"], ["1.686358840348239E-12", "-3.047803782309296E-12", "1.574158575546232E-9", "-1.050395960178918E-11", "1.879656174899373E-9", "2.217375123514337E-10"], ["8.704934046228623E-14", "-1.598884440851779E-13", "-1.050395960178918E-11", "1.297193936501167E-10", "-1.143141964133847E-10", "2.109789625200162E-11"], ["2.084417814183738E-12", "-3.768032265396776E-12", "1.879656174899373E-9", "-1.143141964133847E-10", "2.355439767311597E-9", "1.546170701669895E-10"], ["-1.491602278965372E-13", "2.792384231133396E-13", "2.217375123514337E-10", "2.109789625200162E-11", "1.546170701669895E-10", "5.881329788495085E-10"]], "labels": ["e", "q", "tp", "node", "peri", "i"], "epoch": "2455885.5"}, "elements": [{"name": "e", "sigma": "5.5213E-8", "value": ".4507078112885682", "title": "eccentricity", "units": null, "label": "e"}, {"sigma": "2.0051E-9", "name": "a", "units": "au", "value": "1.808707583386685", "title": "semi-major axis", "label": "a"}, {"label": "q", "sigma": "1.0027E-7", "name": "q", "value": ".9935089472174368", "title": "perihelion distance", "units": "au"}, {"units": "deg", "value": "12.58755619898913", "title": "inclination; angle with respect to x-y ecliptic plane", "sigma": "2.4253E-5", "name": "i", "label": "i"}, {"label": "node", "units": "deg", "value": "40.07253848300455", "title": "longitude of the ascending node", "sigma": "1.1417E-5", "name": "om"}, {"label": "peri", "name": "w", "sigma": "4.8537E-5", "units": "deg", "title": "argument of perihelion", "value": "30.50063429026558"}, {"units": "deg", "value": "179.7863814789237", "title": "mean anomaly", "sigma": "1.4463E-5", "name": "ma", "label": "M"}, {"sigma": "3.6236E-5", "name": "tp", "units": "TDB", "value": "2460756.783828784361", "title": "time of perihelion passage", "label": "tp"}, {"label": "period", "sigma": "1.4774E-6", "name": "per", "units": "d", "value": "888.4867714875061", "title": "sidereal orbital period"}, {"name": "n", "sigma": "6.7375E-10", "units": "deg/d", "value": ".4051832976615818", "title": "mean motion", "label": "n"}, {"sigma": "2.9087E-9", "name": "ad", "units": "au", "value": "2.623906219555933", "title": "aphelion distance", "label": "Q"}], "epoch": "2461200.5"}